start=new Date('2022-11-05T00:00:00.000Z').valueOf();
sats=[{"RCS_SIZE":"LARGE","FILE":"3645105","INCLINATION":"53.0563","GP_ID":"216934179","TLE_LINE1":"1 46363U 20062AQ  22308.72139224  .00000425  00000-0  47414-4 0  9992","OBJECT_ID":"2020-062AQ","SEMIMAJOR_AXIS":"6925.359","REV_AT_EPOCH":"12091","MEAN_MOTION_DDOT":"0.0000000000000","CENTER_NAME":"EARTH","RA_OF_ASC_NODE":"52.7390","EPOCH":"2022-11-04T17:18:48.289536","MEAN_ELEMENT_THEORY":"SGP4","COUNTRY_CODE":"US","OBJECT_TYPE":"PAYLOAD","MEAN_MOTION_DOT":"0.00000425","CLASSIFICATION_TYPE":"U","TIME_SYSTEM":"UTC","ELEMENT_SET_NO":"999","TLE_LINE2":"2 46363  53.0563  52.7390 0001162  84.1680 275.9441 15.06396564120919","MEAN_MOTION":"15.06396564","NORAD_CAT_ID":"46363","ARG_OF_PERICENTER":"84.1680","MEAN_ANOMALY":"275.9441","DECAY_DATE":null,"PERIAPSIS":"546.419","EPHEMERIS_TYPE":"0","PERIOD":"95.592","REF_FRAME":"TEME","ECCENTRICITY":"0.00011620","BSTAR":"0.00004741400000","SITE":"AFETR","APOAPSIS":"548.029","OBJECT_NAME":"STARLINK-1739","LAUNCH_DATE":"2020-09-03"},{"PERIAPSIS":"546.319","EPHEMERIS_TYPE":"0","BSTAR":"0.00022051000000","SITE":"AFETR","APOAPSIS":"548.082","PERIOD":"95.592","ECCENTRICITY":"0.00012730","REF_FRAME":"TEME","LAUNCH_DATE":"2020-09-03","OBJECT_NAME":"STARLINK-1763","OBJECT_TYPE":"PAYLOAD","TIME_SYSTEM":"UTC","CLASSIFICATION_TYPE":"U","ELEMENT_SET_NO":"999","TLE_LINE2":"2 46364  53.0575  34.7307 0001273  98.0284 262.0850 15.06404380121130","MEAN_MOTION_DOT":"0.00003005","ARG_OF_PERICENTER":"98.0284","MEAN_MOTION":"15.06404380","NORAD_CAT_ID":"46364","DECAY_DATE":null,"MEAN_ANOMALY":"262.0850","SEMIMAJOR_AXIS":"6925.335","REV_AT_EPOCH":"12113","MEAN_MOTION_DDOT":"0.0000000000000","EPOCH":"2022-11-04T09:25:14.731104","MEAN_ELEMENT_THEORY":"SGP4","COUNTRY_CODE":"US","RA_OF_ASC_NODE":"34.7307","CENTER_NAME":"EARTH","INCLINATION":"53.0575","FILE":"3644787","RCS_SIZE":"LARGE","GP_ID":"216900666","TLE_LINE1":"1 46364U 20062AR  22308.39253161  .00003005  00000-0  22051-3 0  9999","OBJECT_ID":"2020-062AR"},{"ECCENTRICITY":"0.00013110","REF_FRAME":"TEME","PERIOD":"95.592","APOAPSIS":"548.122","SITE":"AFETR","BSTAR":"0.00015302000000","OBJECT_NAME":"STARLINK-1550","LAUNCH_DATE":"2020-09-03","PERIAPSIS":"546.307","EPHEMERIS_TYPE":"0","NORAD_CAT_ID":"46365","MEAN_MOTION":"15.06399674","ARG_OF_PERICENTER":"84.8417","MEAN_ANOMALY":"275.2721","DECAY_DATE":null,"OBJECT_TYPE":"PAYLOAD","MEAN_MOTION_DOT":"0.00001998","TLE_LINE2":"2 46365  53.0557  53.4488 0001311  84.8417 275.2721 15.06399674121045","ELEMENT_SET_NO":"999","CLASSIFICATION_TYPE":"U","TIME_SYSTEM":"UTC","RA_OF_ASC_NODE":"53.4488","CENTER_NAME":"EARTH","COUNTRY_CODE":"US","MEAN_ELEMENT_THEORY":"SGP4","EPOCH":"2022-11-04T13:37:14.237760","SEMIMAJOR_AXIS":"6925.350","MEAN_MOTION_DDOT":"0.0000000000000","REV_AT_EPOCH":"12104","TLE_LINE1":"1 46365U 20062AS  22308.56752590  .00001998  00000-0  15302-3 0  9999","OBJECT_ID":"2020-062AS","RCS_SIZE":"LARGE","FILE":"3644836","INCLINATION":"53.0557","GP_ID":"216908132"},{"APOAPSIS":"548.167","SITE":"AFETR","BSTAR":"0.00018709000000","PERIOD":"95.592","ECCENTRICITY":"0.00013990","REF_FRAME":"TEME","LAUNCH_DATE":"2020-09-03","OBJECT_NAME":"STARLINK-1651","PERIAPSIS":"546.230","EPHEMERIS_TYPE":"0","ARG_OF_PERICENTER":"103.1768","MEAN_MOTION":"15.06404922","NORAD_CAT_ID":"46366","DECAY_DATE":null,"MEAN_ANOMALY":"256.9377","OBJECT_TYPE":"PAYLOAD","TIME_SYSTEM":"UTC","CLASSIFICATION_TYPE":"U","TLE_LINE2":"2 46366  53.0560  54.1010 0001399 103.1768 256.9377 15.06404922120864","ELEMENT_SET_NO":"999","MEAN_MOTION_DOT":"0.00002507","EPOCH":"2022-11-04T10:10:14.076192","MEAN_ELEMENT_THEORY":"SGP4","COUNTRY_CODE":"US","RA_OF_ASC_NODE":"54.1010","CENTER_NAME":"EARTH","SEMIMAJOR_AXIS":"6925.333","REV_AT_EPOCH":"12086","MEAN_MOTION_DDOT":"0.0000000000000","TLE_LINE1":"1 46366U 20062AT  22308.42377403  .00002507  00000-0  18709-3 0  9992","OBJECT_ID":"2020-062AT","INCLINATION":"53.0560","FILE":"3644787","RCS_SIZE":"LARGE","GP_ID":"216902173"},{"OBJECT_TYPE":"PAYLOAD","MEAN_MOTION_DOT":"0.00000056","TLE_LINE2":"2 46368  53.0539  77.5881 0001290 102.6328 257.4806 15.06402539120576","ELEMENT_SET_NO":"999","CLASSIFICATION_TYPE":"U","TIME_SYSTEM":"UTC","NORAD_CAT_ID":"46368","MEAN_MOTION":"15.06402539","ARG_OF_PERICENTER":"102.6328","MEAN_ANOMALY":"257.4806","DECAY_DATE":null,"PERIAPSIS":"546.312","EPHEMERIS_TYPE":"0","ECCENTRICITY":"0.00012900","REF_FRAME":"TEME","PERIOD":"95.592","SITE":"AFETR","APOAPSIS":"548.099","BSTAR":"0.00002266800000","OBJECT_NAME":"STARLINK-1658","LAUNCH_DATE":"2020-09-03","RCS_SIZE":"LARGE","FILE":"3645105","INCLINATION":"53.0539","GP_ID":"216933679","TLE_LINE1":"1 46368U 20062AV  22308.75410657  .00000056  00000-0  22668-4 0  9996","OBJECT_ID":"2020-062AV","SEMIMAJOR_AXIS":"6925.341","MEAN_MOTION_DDOT":"0.0000000000000","REV_AT_EPOCH":"12057","RA_OF_ASC_NODE":"77.5881","CENTER_NAME":"EARTH","MEAN_ELEMENT_THEORY":"SGP4","COUNTRY_CODE":"US","EPOCH":"2022-11-04T18:05:54.807648"},{"COUNTRY_CODE":"US","MEAN_ELEMENT_THEORY":"SGP4","EPOCH":"2022-11-04T10:52:01.653888","RA_OF_ASC_NODE":"78.9609","CENTER_NAME":"EARTH","SEMIMAJOR_AXIS":"6925.333","MEAN_MOTION_DDOT":"0.0000000000000","REV_AT_EPOCH":"12052","TLE_LINE1":"1 46370U 20062AX  22308.45279692  .00002068  00000-0  15763-3 0  9990","OBJECT_ID":"2020-062AX","INCLINATION":"53.0548","FILE":"3644787","RCS_SIZE":"LARGE","GP_ID":"216901173","SITE":"AFETR","APOAPSIS":"548.015","BSTAR":"0.00015763000000","ECCENTRICITY":"0.00011800","REF_FRAME":"TEME","PERIOD":"95.592","LAUNCH_DATE":"2020-09-03","OBJECT_NAME":"STARLINK-1670","PERIAPSIS":"546.381","EPHEMERIS_TYPE":"0","ARG_OF_PERICENTER":"93.6365","NORAD_CAT_ID":"46370","MEAN_MOTION":"15.06405168","DECAY_DATE":null,"MEAN_ANOMALY":"266.4759","OBJECT_TYPE":"PAYLOAD","ELEMENT_SET_NO":"999","TLE_LINE2":"2 46370  53.0548  78.9609 0001180  93.6365 266.4759 15.06405168120523","CLASSIFICATION_TYPE":"U","TIME_SYSTEM":"UTC","MEAN_MOTION_DOT":"0.00002068"},{"CENTER_NAME":"EARTH","RA_OF_ASC_NODE":"78.1147","EPOCH":"2022-11-04T15:28:02.669376","MEAN_ELEMENT_THEORY":"SGP4","COUNTRY_CODE":"US","SEMIMAJOR_AXIS":"6925.346","REV_AT_EPOCH":"12055","MEAN_MOTION_DDOT":"0.0000000000000","TLE_LINE1":"1 46371U 20062AY  22308.64447534  .00001054  00000-0  89620-4 0  9992","OBJECT_ID":"2020-062AY","RCS_SIZE":"LARGE","FILE":"3645105","INCLINATION":"53.0555","GP_ID":"216933180","PERIOD":"95.592","ECCENTRICITY":"0.00012100","REF_FRAME":"TEME","SITE":"AFETR","APOAPSIS":"548.049","BSTAR":"0.00008962000000","OBJECT_NAME":"STARLINK-1688","LAUNCH_DATE":"2020-09-03","PERIAPSIS":"546.373","EPHEMERIS_TYPE":"0","NORAD_CAT_ID":"46371","MEAN_MOTION":"15.06400842","ARG_OF_PERICENTER":"105.6688","MEAN_ANOMALY":"254.4435","DECAY_DATE":null,"OBJECT_TYPE":"PAYLOAD","MEAN_MOTION_DOT":"0.00001054","CLASSIFICATION_TYPE":"U","TIME_SYSTEM":"UTC","TLE_LINE2":"2 46371  53.0555  78.1147 0001210 105.6688 254.4435 15.06400842120552","ELEMENT_SET_NO":"999"},{"SEMIMAJOR_AXIS":"6925.355","MEAN_MOTION_DDOT":"0.0000000000000","REV_AT_EPOCH":"12029","RA_OF_ASC_NODE":"97.4600","CENTER_NAME":"EARTH","COUNTRY_CODE":"US","MEAN_ELEMENT_THEORY":"SGP4","EPOCH":"2022-11-04T18:52:23.785824","RCS_SIZE":"LARGE","FILE":"3645105","INCLINATION":"53.0556","GP_ID":"216932930","TLE_LINE1":"1 46372U 20062AZ  22308.78638641  .00001551  00000-0  12297-3 0  9996","OBJECT_ID":"2020-062AZ","PERIAPSIS":"546.296","EPHEMERIS_TYPE":"0","ECCENTRICITY":"0.00013340","REF_FRAME":"TEME","PERIOD":"95.592","SITE":"AFETR","BSTAR":"0.00012297000000","APOAPSIS":"548.144","OBJECT_NAME":"STARLINK-1689","LAUNCH_DATE":"2020-09-03","OBJECT_TYPE":"PAYLOAD","MEAN_MOTION_DOT":"0.00001551","ELEMENT_SET_NO":"999","TLE_LINE2":"2 46372  53.0556  97.4600 0001334 106.8636 253.2499 15.06397940120297","CLASSIFICATION_TYPE":"U","TIME_SYSTEM":"UTC","NORAD_CAT_ID":"46372","MEAN_MOTION":"15.06397940","ARG_OF_PERICENTER":"106.8636","MEAN_ANOMALY":"253.2499","DECAY_DATE":null},{"MEAN_MOTION_DOT":"0.00001338","ELEMENT_SET_NO":"999","TLE_LINE2":"2 46374  53.0553  28.0011 0001158  82.6774 277.4346 15.06402655121256","TIME_SYSTEM":"UTC","CLASSIFICATION_TYPE":"U","OBJECT_TYPE":"PAYLOAD","MEAN_ANOMALY":"277.4346","DECAY_DATE":null,"NORAD_CAT_ID":"46374","MEAN_MOTION":"15.06402655","ARG_OF_PERICENTER":"82.6774","EPHEMERIS_TYPE":"0","PERIAPSIS":"546.403","OBJECT_NAME":"STARLINK-1711","LAUNCH_DATE":"2020-09-03","ECCENTRICITY":"0.00011580","REF_FRAME":"TEME","PERIOD":"95.592","APOAPSIS":"548.007","SITE":"AFETR","BSTAR":"0.00010870000000","GP_ID":"216934180","RCS_SIZE":"LARGE","FILE":"3645105","INCLINATION":"53.0553","OBJECT_ID":"2020-062BB","TLE_LINE1":"1 46374U 20062BB  22308.66750939  .00001338  00000-0  10870-3 0  9998","MEAN_MOTION_DDOT":"0.0000000000000","REV_AT_EPOCH":"12125","SEMIMAJOR_AXIS":"6925.340","RA_OF_ASC_NODE":"28.0011","CENTER_NAME":"EARTH","MEAN_ELEMENT_THEORY":"SGP4","COUNTRY_CODE":"US","EPOCH":"2022-11-04T16:01:12.811296"},{"ELEMENT_SET_NO":"999","TLE_LINE2":"2 46375  53.0547  52.9232 0001380  78.7134 281.4010 15.06414524120906","CLASSIFICATION_TYPE":"U","TIME_SYSTEM":"UTC","MEAN_MOTION_DOT":"0.00004814","OBJECT_TYPE":"PAYLOAD","DECAY_DATE":null,"MEAN_ANOMALY":"281.4010","ARG_OF_PERICENTER":"78.7134","MEAN_MOTION":"15.06414524","NORAD_CAT_ID":"46375","EPHEMERIS_TYPE":"0","PERIAPSIS":"546.213","LAUNCH_DATE":"2020-09-03","OBJECT_NAME":"STARLINK-1724","SITE":"AFETR","BSTAR":"0.00034175000000","APOAPSIS":"548.125","ECCENTRICITY":"0.00013800","REF_FRAME":"TEME","PERIOD":"95.591","GP_ID":"216933919","INCLINATION":"53.0547","FILE":"3645105","RCS_SIZE":"LARGE","OBJECT_ID":"2020-062BC","TLE_LINE1":"1 46375U 20062BC  22308.68178810  .00004814  00000-0  34175-3 0  9999","MEAN_MOTION_DDOT":"0.0000000000000","REV_AT_EPOCH":"12090","SEMIMAJOR_AXIS":"6925.304","MEAN_ELEMENT_THEORY":"SGP4","COUNTRY_CODE":"US","EPOCH":"2022-11-04T16:21:46.491840","RA_OF_ASC_NODE":"52.9232","CENTER_NAME":"EARTH"}];
